<?xml version="1.0" encoding="UTF-8"?>
<ndm xmlns:xsi="http://www.w3.org/2001/XMLSchema-instance" xsi:noNamespaceSchemaLocation="https://sanaregistry.org/r/ndmxml_unqualified/ndmxml-2.0.0-master-2.0.xsd">
<omm id="CCSDS_OMM_VERS" version="2.0">
<header><CREATION_DATE/><ORIGINATOR/></header><body><segment><metadata><OBJECT_NAME>ORBCOMM FM24</OBJECT_NAME><OBJECT_ID>1998-053D</OBJECT_ID><CENTER_NAME>EARTH</CENTER_NAME><REF_FRAME>TEME</REF_FRAME><TIME_SYSTEM>UTC</TIME_SYSTEM><MEAN_ELEMENT_THEORY>SGP4</MEAN_ELEMENT_THEORY></metadata><data><meanElements><EPOCH>2026-01-02T03:48:32.165568</EPOCH><MEAN_MOTION>14.38719210</MEAN_MOTION><ECCENTRICITY>.00026192</ECCENTRICITY><INCLINATION>45.0081</INCLINATION><RA_OF_ASC_NODE>45.2742</RA_OF_ASC_NODE><ARG_OF_PERICENTER>205.3706</ARG_OF_PERICENTER><MEAN_ANOMALY>154.7014</MEAN_ANOMALY></meanElements><tleParameters><EPHEMERIS_TYPE>0</EPHEMERIS_TYPE><CLASSIFICATION_TYPE>U</CLASSIFICATION_TYPE><NORAD_CAT_ID>25478</NORAD_CAT_ID><ELEMENT_SET_NO>999</ELEMENT_SET_NO><REV_AT_EPOCH>42609</REV_AT_EPOCH><BSTAR>.7836285E-3</BSTAR><MEAN_MOTION_DOT>.2285E-4</MEAN_MOTION_DOT><MEAN_MOTION_DDOT>0</MEAN_MOTION_DDOT></tleParameters></data></segment></body></omm>
<omm id="CCSDS_OMM_VERS" version="2.0">
<header><CREATION_DATE/><ORIGINATOR/></header><body><segment><metadata><OBJECT_NAME>ORBCOMM FM25</OBJECT_NAME><OBJECT_ID>1998-053E</OBJECT_ID><CENTER_NAME>EARTH</CENTER_NAME><REF_FRAME>TEME</REF_FRAME><TIME_SYSTEM>UTC</TIME_SYSTEM><MEAN_ELEMENT_THEORY>SGP4</MEAN_ELEMENT_THEORY></metadata><data><meanElements><EPOCH>2026-01-02T01:33:15.149952</EPOCH><MEAN_MOTION>14.38688100</MEAN_MOTION><ECCENTRICITY>.0004814</ECCENTRICITY><INCLINATION>45.0071</INCLINATION><RA_OF_ASC_NODE>44.0217</RA_OF_ASC_NODE><ARG_OF_PERICENTER>191.5021</ARG_OF_PERICENTER><MEAN_ANOMALY>168.5719</MEAN_ANOMALY></meanElements><tleParameters><EPHEMERIS_TYPE>0</EPHEMERIS_TYPE><CLASSIFICATION_TYPE>U</CLASSIFICATION_TYPE><NORAD_CAT_ID>25479</NORAD_CAT_ID><ELEMENT_SET_NO>999</ELEMENT_SET_NO><REV_AT_EPOCH>42637</REV_AT_EPOCH><BSTAR>.81675141E-3</BSTAR><MEAN_MOTION_DOT>.2387E-4</MEAN_MOTION_DOT><MEAN_MOTION_DDOT>0</MEAN_MOTION_DDOT></tleParameters></data></segment></body></omm>
<omm id="CCSDS_OMM_VERS" version="2.0">
<header><CREATION_DATE/><ORIGINATOR/></header><body><segment><metadata><OBJECT_NAME>ORBCOMM FM26</OBJECT_NAME><OBJECT_ID>1998-053F</OBJECT_ID><CENTER_NAME>EARTH</CENTER_NAME><REF_FRAME>TEME</REF_FRAME><TIME_SYSTEM>UTC</TIME_SYSTEM><MEAN_ELEMENT_THEORY>SGP4</MEAN_ELEMENT_THEORY></metadata><data><meanElements><EPOCH>2026-01-02T03:25:24.946176</EPOCH><MEAN_MOTION>14.37650406</MEAN_MOTION><ECCENTRICITY>.0007006</ECCENTRICITY><INCLINATION>45.0077</INCLINATION><RA_OF_ASC_NODE>41.6056</RA_OF_ASC_NODE><ARG_OF_PERICENTER>198.5829</ARG_OF_PERICENTER><MEAN_ANOMALY>161.4764</MEAN_ANOMALY></meanElements><tleParameters><EPHEMERIS_TYPE>0</EPHEMERIS_TYPE><CLASSIFICATION_TYPE>U</CLASSIFICATION_TYPE><NORAD_CAT_ID>25480</NORAD_CAT_ID><ELEMENT_SET_NO>999</ELEMENT_SET_NO><REV_AT_EPOCH>42627</REV_AT_EPOCH><BSTAR>.64589116E-3</BSTAR><MEAN_MOTION_DOT>.1817E-4</MEAN_MOTION_DOT><MEAN_MOTION_DDOT>0</MEAN_MOTION_DDOT></tleParameters></data></segment></body></omm>
<omm id="CCSDS_OMM_VERS" version="2.0">
<header><CREATION_DATE/><ORIGINATOR/></header><body><segment><metadata><OBJECT_NAME>ORBCOMM FM27</OBJECT_NAME><OBJECT_ID>1998-053G</OBJECT_ID><CENTER_NAME>EARTH</CENTER_NAME><REF_FRAME>TEME</REF_FRAME><TIME_SYSTEM>UTC</TIME_SYSTEM><MEAN_ELEMENT_THEORY>SGP4</MEAN_ELEMENT_THEORY></metadata><data><meanElements><EPOCH>2026-01-02T06:08:56.442912</EPOCH><MEAN_MOTION>14.38725485</MEAN_MOTION><ECCENTRICITY>.00023635</ECCENTRICITY><INCLINATION>45.0055</INCLINATION><RA_OF_ASC_NODE>43.2388</RA_OF_ASC_NODE><ARG_OF_PERICENTER>241.4315</ARG_OF_PERICENTER><MEAN_ANOMALY>118.6296</MEAN_ANOMALY></meanElements><tleParameters><EPHEMERIS_TYPE>0</EPHEMERIS_TYPE><CLASSIFICATION_TYPE>U</CLASSIFICATION_TYPE><NORAD_CAT_ID>25481</NORAD_CAT_ID><ELEMENT_SET_NO>999</ELEMENT_SET_NO><REV_AT_EPOCH>42633</REV_AT_EPOCH><BSTAR>.85371928E-3</BSTAR><MEAN_MOTION_DOT>.2503E-4</MEAN_MOTION_DOT><MEAN_MOTION_DDOT>0</MEAN_MOTION_DDOT></tleParameters></data></segment></body></omm>
<omm id="CCSDS_OMM_VERS" version="2.0">
<header><CREATION_DATE/><ORIGINATOR/></header><body><segment><metadata><OBJECT_NAME>ORBCOMM FM28</OBJECT_NAME><OBJECT_ID>1998-053H</OBJECT_ID><CENTER_NAME>EARTH</CENTER_NAME><REF_FRAME>TEME</REF_FRAME><TIME_SYSTEM>UTC</TIME_SYSTEM><MEAN_ELEMENT_THEORY>SGP4</MEAN_ELEMENT_THEORY></metadata><data><meanElements><EPOCH>2026-01-01T23:51:35.170848</EPOCH><MEAN_MOTION>14.38844947</MEAN_MOTION><ECCENTRICITY>.0005334</ECCENTRICITY><INCLINATION>45.0068</INCLINATION><RA_OF_ASC_NODE>341.7420</RA_OF_ASC_NODE><ARG_OF_PERICENTER>241.4468</ARG_OF_PERICENTER><MEAN_ANOMALY>118.5844</MEAN_ANOMALY></meanElements><tleParameters><EPHEMERIS_TYPE>0</EPHEMERIS_TYPE><CLASSIFICATION_TYPE>U</CLASSIFICATION_TYPE><NORAD_CAT_ID>25482</NORAD_CAT_ID><ELEMENT_SET_NO>999</ELEMENT_SET_NO><REV_AT_EPOCH>42698</REV_AT_EPOCH><BSTAR>.71054E-3</BSTAR><MEAN_MOTION_DOT>.2065E-4</MEAN_MOTION_DOT><MEAN_MOTION_DDOT>0</MEAN_MOTION_DDOT></tleParameters></data></segment></body></omm>
<omm id="CCSDS_OMM_VERS" version="2.0">
<header><CREATION_DATE/><ORIGINATOR/></header><body><segment><metadata><OBJECT_NAME>ORBCOMM FM30</OBJECT_NAME><OBJECT_ID>1999-065A</OBJECT_ID><CENTER_NAME>EARTH</CENTER_NAME><REF_FRAME>TEME</REF_FRAME><TIME_SYSTEM>UTC</TIME_SYSTEM><MEAN_ELEMENT_THEORY>SGP4</MEAN_ELEMENT_THEORY></metadata><data><meanElements><EPOCH>2026-01-02T00:58:07.706208</EPOCH><MEAN_MOTION>14.37811287</MEAN_MOTION><ECCENTRICITY>.00062092</ECCENTRICITY><INCLINATION>45.0299</INCLINATION><RA_OF_ASC_NODE>228.1367</RA_OF_ASC_NODE><ARG_OF_PERICENTER>292.4707</ARG_OF_PERICENTER><MEAN_ANOMALY>67.5484</MEAN_ANOMALY></meanElements><tleParameters><EPHEMERIS_TYPE>0</EPHEMERIS_TYPE><CLASSIFICATION_TYPE>U</CLASSIFICATION_TYPE><NORAD_CAT_ID>25980</NORAD_CAT_ID><ELEMENT_SET_NO>999</ELEMENT_SET_NO><REV_AT_EPOCH>36306</REV_AT_EPOCH><BSTAR>.52286005E-3</BSTAR><MEAN_MOTION_DOT>.1448E-4</MEAN_MOTION_DOT><MEAN_MOTION_DDOT>0</MEAN_MOTION_DDOT></tleParameters></data></segment></body></omm>
<omm id="CCSDS_OMM_VERS" version="2.0">
<header><CREATION_DATE/><ORIGINATOR/></header><body><segment><metadata><OBJECT_NAME>ORBCOMM FM31</OBJECT_NAME><OBJECT_ID>1999-065B</OBJECT_ID><CENTER_NAME>EARTH</CENTER_NAME><REF_FRAME>TEME</REF_FRAME><TIME_SYSTEM>UTC</TIME_SYSTEM><MEAN_ELEMENT_THEORY>SGP4</MEAN_ELEMENT_THEORY></metadata><data><meanElements><EPOCH>2026-01-02T00:33:08.710272</EPOCH><MEAN_MOTION>14.37736683</MEAN_MOTION><ECCENTRICITY>.00039247</ECCENTRICITY><INCLINATION>45.0212</INCLINATION><RA_OF_ASC_NODE>221.6690</RA_OF_ASC_NODE><ARG_OF_PERICENTER>322.1044</ARG_OF_PERICENTER><MEAN_ANOMALY>37.9527</MEAN_ANOMALY></meanElements><tleParameters><EPHEMERIS_TYPE>0</EPHEMERIS_TYPE><CLASSIFICATION_TYPE>U</CLASSIFICATION_TYPE><NORAD_CAT_ID>25981</NORAD_CAT_ID><ELEMENT_SET_NO>999</ELEMENT_SET_NO><REV_AT_EPOCH>36261</REV_AT_EPOCH><BSTAR>.47902889E-3</BSTAR><MEAN_MOTION_DOT>.1312E-4</MEAN_MOTION_DOT><MEAN_MOTION_DDOT>0</MEAN_MOTION_DDOT></tleParameters></data></segment></body></omm>
<omm id="CCSDS_OMM_VERS" version="2.0">
<header><CREATION_DATE/><ORIGINATOR/></header><body><segment><metadata><OBJECT_NAME>ORBCOMM FM32</OBJECT_NAME><OBJECT_ID>1999-065C</OBJECT_ID><CENTER_NAME>EARTH</CENTER_NAME><REF_FRAME>TEME</REF_FRAME><TIME_SYSTEM>UTC</TIME_SYSTEM><MEAN_ELEMENT_THEORY>SGP4</MEAN_ELEMENT_THEORY></metadata><data><meanElements><EPOCH>2026-01-02T01:28:46.362144</EPOCH><MEAN_MOTION>14.36798758</MEAN_MOTION><ECCENTRICITY>.00064399</ECCENTRICITY><INCLINATION>45.0145</INCLINATION><RA_OF_ASC_NODE>239.3932</RA_OF_ASC_NODE><ARG_OF_PERICENTER>314.5455</ARG_OF_PERICENTER><MEAN_ANOMALY>45.4867</MEAN_ANOMALY></meanElements><tleParameters><EPHEMERIS_TYPE>0</EPHEMERIS_TYPE><CLASSIFICATION_TYPE>U</CLASSIFICATION_TYPE><NORAD_CAT_ID>25982</NORAD_CAT_ID><ELEMENT_SET_NO>999</ELEMENT_SET_NO><REV_AT_EPOCH>36319</REV_AT_EPOCH><BSTAR>.57101252E-3</BSTAR><MEAN_MOTION_DOT>.156E-4</MEAN_MOTION_DOT><MEAN_MOTION_DDOT>0</MEAN_MOTION_DDOT></tleParameters></data></segment></body></omm>

</ndm>
