ORBCOMM FM24            
1 25478U 98053D   26002.15870562  .00002285  00000+0  78363-3 0  9991
2 25478  45.0081  45.2742 0002619 205.3706 154.7014 14.38719210426090
ORBCOMM FM25            
1 25479U 98053E   26002.06475868  .00002387  00000+0  81675-3 0  9995
2 25479  45.0071  44.0217 0004814 191.5021 168.5719 14.38688100426378
ORBCOMM FM26            
1 25480U 98053F   26002.14264984  .00001817  00000+0  64589-3 0  9993
2 25480  45.0077  41.6056 0007006 198.5829 161.4764 14.37650406426277
ORBCOMM FM27            
1 25481U 98053G   26002.25620883  .00002503  00000+0  85372-3 0  9996
2 25481  45.0055  43.2388 0002363 241.4315 118.6296 14.38725485426331
ORBCOMM FM28            
1 25482U 98053H   26001.99415707  .00002065  00000+0  71054-3 0  9999
2 25482  45.0068 341.7420 0005334 241.4468 118.5844 14.38844947426983
ORBCOMM FM30            
1 25980U 99065A   26002.04036697  .00001448  00000+0  52286-3 0  9990
2 25980  45.0299 228.1367 0006209 292.4707  67.5484 14.37811287363066
ORBCOMM FM31            
1 25981U 99065B   26002.02301748  .00001312  00000+0  47903-3 0  9991
2 25981  45.0212 221.6690 0003924 322.1044  37.9527 14.37736683362610
ORBCOMM FM32            
1 25982U 99065C   26002.06164771  .00001560  00000+0  57101-3 0  9995
2 25982  45.0145 239.3932 0006439 314.5455  45.4867 14.36798758363191
